JILIN-1 GAOFEN 3A       
1 44312U 19032C   26068.74542089  .00016264  00000+0  55381-3 0  9993
2 44312  44.9746 183.2861 0002618 111.2900 248.8263 15.30271310372592
STARLINK-31967          
1 60021U 24111F   26068.40307641 -.00001132  00000+0 -26110-4 0  9997
2 60021  53.1598  76.6673 0001376  88.3898 271.7261 15.30190080 99009
