[{"OBJECT_NAME":"JILIN-1 GAOFEN 3A","OBJECT_ID":"2019-032C","EPOCH":"2026-03-09T17:53:24.364896","MEAN_MOTION":15.3027131,"ECCENTRICITY":0.00026181,"INCLINATION":44.9746,"RA_OF_ASC_NODE":183.2861,"ARG_OF_PERICENTER":111.29,"MEAN_ANOMALY":248.8263,"EPHEMERIS_TYPE":0,"CLASSIFICATION_TYPE":"U","NORAD_CAT_ID":44312,"ELEMENT_SET_NO":999,"REV_AT_EPOCH":37259,"BSTAR":0.00055381133,"MEAN_MOTION_DOT":0.00016264,"MEAN_MOTION_DDOT":0},{"OBJECT_NAME":"STARLINK-31967","OBJECT_ID":"2024-111F","EPOCH":"2026-03-09T09:40:25.801824","MEAN_MOTION":15.3019008,"ECCENTRICITY":0.00013766,"INCLINATION":53.1598,"RA_OF_ASC_NODE":76.6673,"ARG_OF_PERICENTER":88.3898,"MEAN_ANOMALY":271.7261,"EPHEMERIS_TYPE":0,"CLASSIFICATION_TYPE":"U","NORAD_CAT_ID":60021,"ELEMENT_SET_NO":999,"REV_AT_EPOCH":9900,"BSTAR":-2.6110032e-5,"MEAN_MOTION_DOT":-1.132e-5,"MEAN_MOTION_DDOT":0}]
